IRIDIUM 144             
1 43249U 18030A   25041.50207664  .00000528  00000+0  18156-3 0  9994
2 43249  86.4007 135.9774 0002199  95.6689 264.4758 14.34218645359662
IRIDIUM 149             
1 43250U 18030B   25041.50841786  .00000263  00000+0  86800-4 0  9993
2 43250  86.4006 135.9474 0002190  91.9156 268.2290 14.34217191359689
IRIDIUM 157             
1 43251U 18030C   25041.31814114 -.00000056  00000+0 -27125-4 0  9995
2 43251  86.4009 136.0689 0001750  97.7832 262.3563 14.34218291359634
IRIDIUM 140             
1 43252U 18030D   25041.54647179  .00000521  00000+0  17879-3 0  9995
2 43252  86.4009 135.9880 0002312  97.4550 262.6909 14.34221371359725
IRIDIUM 145             
1 43253U 18030E   25041.53379080 -.00000246  00000+0 -94766-4 0  9995
2 43253  86.4008 135.9659 0002308  88.0184 272.1276 14.34215987359654
IRIDIUM 146             
1 43254U 18030F   25041.51476299  .00000151  00000+0  46898-4 0  9990
2 43254  86.4006 135.9879 0002560  89.9594 270.1895 14.34218520359664
IRIDIUM 148             
1 43255U 18030G   25041.55281649  .00000339  00000+0  11416-3 0  9993
2 43255  86.4008 136.0076 0002173  92.1963 267.9482 14.34219579359700
IRIDIUM 142             
1 43256U 18030H   25041.52110525  .00000021  00000+0  33005-6 0  9994
2 43256  86.4006 135.9279 0002387  87.0786 273.0683 14.34217427359661
